IRIDIUM 26              
1 24903U 97043A   25360.13520234  .00000343  00000+0  10838-3 0  9999
2 24903  86.3949  29.9315 0002261  97.5726 262.5728 14.37337289484314
IRIDIUM 22              
1 24907U 97043E   25360.15510909  .00000321  00000+0  10355-3 0  9993
2 24907  86.3952  33.6279 0002342  92.9687 267.1778 14.36130428484320
DUMMY MASS 1            
1 24925U 97048A   25360.12825133  .00000391  00000+0  40256-4 0  9994
2 24925  86.3331  46.5097 0006837 165.1554 194.9873 14.87193648533654
DUMMY MASS 2            
1 24926U 97048B   25360.12246881  .00000401  00000+0  41698-4 0  9995
2 24926  86.3331  48.1558 0007059 178.8010 181.3233 14.86944180533429
IRIDIUM 29              
1 24944U 97051A   25360.10817516  .00000354  00000+0  11353-3 0  9997
2 24944  86.3942  63.3300 0002224  90.3337 269.8115 14.36672679480822
IRIDIUM 33              
1 24946U 97051C   25360.16410873  .00000330  00000+0  10877-3 0  9994
2 24946  86.3856  62.5860 0008611 157.3074 202.8505 14.35046384480274
IRIDIUM 28              
1 24948U 97051E   25360.16963552  .00000372  00000+0  11756-3 0  9996
2 24948  86.3948  60.7101 0002371 107.6949 252.4507 14.37573079481421
IRIDIUM 36              
1 24967U 97056C   25359.75508966  .00000463  00000+0  14711-3 0  9994
2 24967  86.3962  92.5126 0002358  99.5682 260.5782 14.37795304479740
